STARLINK-31829          
1 59770U 24091T   25288.36263859  .00012273  00000+0  42610-3 0  9991
2 59770  53.1597 341.9577 0001185  92.9432 267.1704 15.30178463 80755
STARLINK-31786          
1 59771U 24091U   25288.44168582  .00001289  00000+0  55638-4 0  9998
2 59771  53.1601 341.7366 0001116  83.2634 276.8494 15.30196120 80761
STARLINK-31835          
1 59772U 24091V   25288.55543055  .00002727  00000+0  10422-3 0  9992
2 59772  53.1608 341.0202 0001608  86.9317 273.1868 15.30190601 80780
STARLINK-31363          
1 59782U 24093A   25288.41209594 -.00000589  00000+0 -11926-4 0  9994
2 59782  42.9983 306.1430 0000305 151.2061 208.8808 15.27554648 80514
STARLINK-31868          
1 59783U 24093B   25288.47874440  .00001007  00000+0  46096-4 0  9999
2 59783  43.0009 305.7459 0000687 263.1907  96.8867 15.27576512 80522
STARLINK-31848          
1 59784U 24093C   25288.32229190 -.00000756  00000+0 -17949-4 0  9997
2 59784  43.0024 306.3775 0001966 274.1300  85.9327 15.27577532 80509
STARLINK-31890          
1 59785U 24093D   25288.32614723  .00002911  00000+0  11529-3 0  9998
2 59785  43.0019 306.3978 0001534 268.9529  91.1146 15.27572979 80502
STARLINK-31862          
1 59786U 24093E   25288.42944596  .00000845  00000+0  40243-4 0  9994
2 59786  43.0005 308.9149 0000930 278.9846  81.0900 15.27575549 80487
STARLINK-31870          
1 59787U 24093F   25288.42559223  .00001350  00000+0  58582-4 0  9991
2 59787  42.9979 308.8859 0001104 272.6420  87.4305 15.27575887 80480
STARLINK-31888          
1 59788U 24093G   25288.37048773  .00000223  00000+0  17648-4 0  9995
2 59788  42.9995 309.3332 0001491 267.7247  92.3434 15.27566263 80477
STARLINK-31863          
1 59789U 24093H   25288.36791325  .00003354  00000+0  13141-3 0  9994
2 59789  43.0029 309.3135 0000905 265.9497  94.1251 15.27562557 80474
STARLINK-31873          
1 59790U 24093J   25288.11665990  .00004936  00000+0  18880-3 0  9999
2 59790  43.0039 310.8681 0001352 271.4220  88.6477 15.27572223 80438
STARLINK-31865          
1 59791U 24093K   25288.12051001 -.00004255  00000+0 -14529-3 0  9995
2 59791  43.0061 310.8974 0001433 277.8019  82.2670 15.27557029 80437
STARLINK-31823          
1 59794U 24093N   25288.12436221  .00002323  00000+0  93882-4 0  9991
2 59794  43.0031 310.9256 0001041 265.9504  94.1229 15.27587496 80436
STARLINK-31916          
1 59795U 24093P   25287.14743766 -.00016697  00000+0 -59763-3 0  9998
2 59795  43.0028 316.4941 0001024  96.4434 263.6534 15.27632977 80285
STARLINK-31907          
1 59797U 24093R   25287.34617996 -.00003482  00000+0 -11718-3 0  9993
2 59797  43.0052 315.4096 0001390 269.8467  90.2225 15.27545695 80317
