[{"OBJECT_NAME":"STARLINK-31829","OBJECT_ID":"2024-091T","EPOCH":"2025-10-15T08:42:11.974176","MEAN_MOTION":15.30178463,"ECCENTRICITY":0.00011854,"INCLINATION":53.1597,"RA_OF_ASC_NODE":341.9577,"ARG_OF_PERICENTER":92.9432,"MEAN_ANOMALY":267.1704,"EPHEMERIS_TYPE":0,"CLASSIFICATION_TYPE":"U","NORAD_CAT_ID":59770,"ELEMENT_SET_NO":999,"REV_AT_EPOCH":8075,"BSTAR":0.00042609631,"MEAN_MOTION_DOT":0.00012273,"MEAN_MOTION_DDOT":0},{"OBJECT_NAME":"STARLINK-31786","OBJECT_ID":"2024-091U","EPOCH":"2025-10-15T10:36:01.654848","MEAN_MOTION":15.3019612,"ECCENTRICITY":0.00011168,"INCLINATION":53.1601,"RA_OF_ASC_NODE":341.7366,"ARG_OF_PERICENTER":83.2634,"MEAN_ANOMALY":276.8494,"EPHEMERIS_TYPE":0,"CLASSIFICATION_TYPE":"U","NORAD_CAT_ID":59771,"ELEMENT_SET_NO":999,"REV_AT_EPOCH":8076,"BSTAR":5.5638223e-5,"MEAN_MOTION_DOT":1.289e-5,"MEAN_MOTION_DDOT":0},{"OBJECT_NAME":"STARLINK-31835","OBJECT_ID":"2024-091V","EPOCH":"2025-10-15T13:19:49.199520","MEAN_MOTION":15.30190601,"ECCENTRICITY":0.00016087,"INCLINATION":53.1608,"RA_OF_ASC_NODE":341.0202,"ARG_OF_PERICENTER":86.9317,"MEAN_ANOMALY":273.1868,"EPHEMERIS_TYPE":0,"CLASSIFICATION_TYPE":"U","NORAD_CAT_ID":59772,"ELEMENT_SET_NO":999,"REV_AT_EPOCH":8078,"BSTAR":0.00010421502,"MEAN_MOTION_DOT":2.727e-5,"MEAN_MOTION_DDOT":0},{"OBJECT_NAME":"STARLINK-31363","OBJECT_ID":"2024-093A","EPOCH":"2025-10-15T09:53:25.089216","MEAN_MOTION":15.27554648,"ECCENTRICITY":3.051e-5,"INCLINATION":42.9983,"RA_OF_ASC_NODE":306.143,"ARG_OF_PERICENTER":151.2061,"MEAN_ANOMALY":208.8808,"EPHEMERIS_TYPE":0,"CLASSIFICATION_TYPE":"U","NORAD_CAT_ID":59782,"ELEMENT_SET_NO":999,"REV_AT_EPOCH":8051,"BSTAR":-1.1925977e-5,"MEAN_MOTION_DOT":-5.89e-6,"MEAN_MOTION_DDOT":0},{"OBJECT_NAME":"STARLINK-31868","OBJECT_ID":"2024-093B","EPOCH":"2025-10-15T11:29:23.516160","MEAN_MOTION":15.27576512,"ECCENTRICITY":6.874e-5,"INCLINATION":43.0009,"RA_OF_ASC_NODE":305.7459,"ARG_OF_PERICENTER":263.1907,"MEAN_ANOMALY":96.8867,"EPHEMERIS_TYPE":0,"CLASSIFICATION_TYPE":"U","NORAD_CAT_ID":59783,"ELEMENT_SET_NO":999,"REV_AT_EPOCH":8052,"BSTAR":4.6096401e-5,"MEAN_MOTION_DOT":1.007e-5,"MEAN_MOTION_DDOT":0},{"OBJECT_NAME":"STARLINK-31848","OBJECT_ID":"2024-093C","EPOCH":"2025-10-15T07:44:06.020160","MEAN_MOTION":15.27577532,"ECCENTRICITY":0.00019666,"INCLINATION":43.0024,"RA_OF_ASC_NODE":306.3775,"ARG_OF_PERICENTER":274.13,"MEAN_ANOMALY":85.9327,"EPHEMERIS_TYPE":0,"CLASSIFICATION_TYPE":"U","NORAD_CAT_ID":59784,"ELEMENT_SET_NO":999,"REV_AT_EPOCH":8050,"BSTAR":-1.7948713e-5,"MEAN_MOTION_DOT":-7.56e-6,"MEAN_MOTION_DDOT":0},{"OBJECT_NAME":"STARLINK-31890","OBJECT_ID":"2024-093D","EPOCH":"2025-10-15T07:49:39.120672","MEAN_MOTION":15.27572979,"ECCENTRICITY":0.00015344,"INCLINATION":43.0019,"RA_OF_ASC_NODE":306.3978,"ARG_OF_PERICENTER":268.9529,"MEAN_ANOMALY":91.1146,"EPHEMERIS_TYPE":0,"CLASSIFICATION_TYPE":"U","NORAD_CAT_ID":59785,"ELEMENT_SET_NO":999,"REV_AT_EPOCH":8050,"BSTAR":0.00011529279,"MEAN_MOTION_DOT":2.911e-5,"MEAN_MOTION_DDOT":0},{"OBJECT_NAME":"STARLINK-31862","OBJECT_ID":"2024-093E","EPOCH":"2025-10-15T10:18:24.130944","MEAN_MOTION":15.27575549,"ECCENTRICITY":9.307e-5,"INCLINATION":43.0005,"RA_OF_ASC_NODE":308.9149,"ARG_OF_PERICENTER":278.9846,"MEAN_ANOMALY":81.09,"EPHEMERIS_TYPE":0,"CLASSIFICATION_TYPE":"U","NORAD_CAT_ID":59786,"ELEMENT_SET_NO":999,"REV_AT_EPOCH":8048,"BSTAR":4.0242693e-5,"MEAN_MOTION_DOT":8.45e-6,"MEAN_MOTION_DDOT":0},{"OBJECT_NAME":"STARLINK-31870","OBJECT_ID":"2024-093F","EPOCH":"2025-10-15T10:12:51.168672","MEAN_MOTION":15.27575887,"ECCENTRICITY":0.00011049,"INCLINATION":42.9979,"RA_OF_ASC_NODE":308.8859,"ARG_OF_PERICENTER":272.642,"MEAN_ANOMALY":87.4305,"EPHEMERIS_TYPE":0,"CLASSIFICATION_TYPE":"U","NORAD_CAT_ID":59787,"ELEMENT_SET_NO":999,"REV_AT_EPOCH":8048,"BSTAR":5.8581673e-5,"MEAN_MOTION_DOT":1.35e-5,"MEAN_MOTION_DDOT":0},{"OBJECT_NAME":"STARLINK-31888","OBJECT_ID":"2024-093G","EPOCH":"2025-10-15T08:53:30.139872","MEAN_MOTION":15.27566263,"ECCENTRICITY":0.00014916,"INCLINATION":42.9995,"RA_OF_ASC_NODE":309.3332,"ARG_OF_PERICENTER":267.7247,"MEAN_ANOMALY":92.3434,"EPHEMERIS_TYPE":0,"CLASSIFICATION_TYPE":"U","NORAD_CAT_ID":59788,"ELEMENT_SET_NO":999,"REV_AT_EPOCH":8047,"BSTAR":1.7647571e-5,"MEAN_MOTION_DOT":2.23e-6,"MEAN_MOTION_DDOT":0},{"OBJECT_NAME":"STARLINK-31863","OBJECT_ID":"2024-093H","EPOCH":"2025-10-15T08:49:47.704800","MEAN_MOTION":15.27562557,"ECCENTRICITY":9.057e-5,"INCLINATION":43.0029,"RA_OF_ASC_NODE":309.3135,"ARG_OF_PERICENTER":265.9497,"MEAN_ANOMALY":94.1251,"EPHEMERIS_TYPE":0,"CLASSIFICATION_TYPE":"U","NORAD_CAT_ID":59789,"ELEMENT_SET_NO":999,"REV_AT_EPOCH":8047,"BSTAR":0.00013141479,"MEAN_MOTION_DOT":3.354e-5,"MEAN_MOTION_DDOT":0},{"OBJECT_NAME":"STARLINK-31873","OBJECT_ID":"2024-093J","EPOCH":"2025-10-15T02:47:59.415360","MEAN_MOTION":15.27572223,"ECCENTRICITY":0.00013522,"INCLINATION":43.0039,"RA_OF_ASC_NODE":310.8681,"ARG_OF_PERICENTER":271.422,"MEAN_ANOMALY":88.6477,"EPHEMERIS_TYPE":0,"CLASSIFICATION_TYPE":"U","NORAD_CAT_ID":59790,"ELEMENT_SET_NO":999,"REV_AT_EPOCH":8043,"BSTAR":0.00018880364,"MEAN_MOTION_DOT":4.936e-5,"MEAN_MOTION_DDOT":0},{"OBJECT_NAME":"STARLINK-31865","OBJECT_ID":"2024-093K","EPOCH":"2025-10-15T02:53:32.064864","MEAN_MOTION":15.27557029,"ECCENTRICITY":0.00014332,"INCLINATION":43.0061,"RA_OF_ASC_NODE":310.8974,"ARG_OF_PERICENTER":277.8019,"MEAN_ANOMALY":82.267,"EPHEMERIS_TYPE":0,"CLASSIFICATION_TYPE":"U","NORAD_CAT_ID":59791,"ELEMENT_SET_NO":999,"REV_AT_EPOCH":8043,"BSTAR":-0.00014528553,"MEAN_MOTION_DOT":-4.255e-5,"MEAN_MOTION_DDOT":0},{"OBJECT_NAME":"STARLINK-31823","OBJECT_ID":"2024-093N","EPOCH":"2025-10-15T02:59:04.894944","MEAN_MOTION":15.27587496,"ECCENTRICITY":0.00010414,"INCLINATION":43.0031,"RA_OF_ASC_NODE":310.9256,"ARG_OF_PERICENTER":265.9504,"MEAN_ANOMALY":94.1229,"EPHEMERIS_TYPE":0,"CLASSIFICATION_TYPE":"U","NORAD_CAT_ID":59794,"ELEMENT_SET_NO":999,"REV_AT_EPOCH":8043,"BSTAR":9.3882499e-5,"MEAN_MOTION_DOT":2.323e-5,"MEAN_MOTION_DDOT":0},{"OBJECT_NAME":"STARLINK-31916","OBJECT_ID":"2024-093P","EPOCH":"2025-10-14T03:32:18.613824","MEAN_MOTION":15.27632977,"ECCENTRICITY":0.00010245,"INCLINATION":43.0028,"RA_OF_ASC_NODE":316.4941,"ARG_OF_PERICENTER":96.4434,"MEAN_ANOMALY":263.6534,"EPHEMERIS_TYPE":0,"CLASSIFICATION_TYPE":"U","NORAD_CAT_ID":59795,"ELEMENT_SET_NO":999,"REV_AT_EPOCH":8028,"BSTAR":-0.00059762677,"MEAN_MOTION_DOT":-0.00016697,"MEAN_MOTION_DDOT":0},{"OBJECT_NAME":"STARLINK-31907","OBJECT_ID":"2024-093R","EPOCH":"2025-10-14T08:18:29.948544","MEAN_MOTION":15.27545695,"ECCENTRICITY":0.00013904,"INCLINATION":43.0052,"RA_OF_ASC_NODE":315.4096,"ARG_OF_PERICENTER":269.8467,"MEAN_ANOMALY":90.2225,"EPHEMERIS_TYPE":0,"CLASSIFICATION_TYPE":"U","NORAD_CAT_ID":59797,"ELEMENT_SET_NO":999,"REV_AT_EPOCH":8031,"BSTAR":-0.00011717662,"MEAN_MOTION_DOT":-3.482e-5,"MEAN_MOTION_DDOT":0}]
